ASNARO-2                
1 43152U 18007A   26155.10628407  .00006584  00000+0  28807-3 0  9998
2 43152  97.3973 162.2376 0001828  89.5685 270.5761 15.22386229465421
JILIN-1 07              
1 43159U 18008E   26154.92145321  .00010015  00000+0  30152-3 0  9994
2 43159  97.1772 175.2058 0010239 103.7414 256.4970 15.34489622462964
JILIN-1 08              
1 43160U 18008F   26154.91323773  .00007202  00000+0  22425-3 0  9992
2 43160  97.1804 174.5278 0007885 116.0296 244.1760 15.33546878462918
LEMUR-2-KADI            
1 43184U 18014E   26154.32370688  .03743155  24768-5  16818-2 0  9995
2 43184  97.4341  85.7610 0009983 210.8841 149.1863 16.22065807458893
S-NET D                 
1 43186U 18014G   26154.54043923  .00006087  00000+0  31519-3 0  9996
2 43186  97.5372  59.4172 0009938  70.8529 289.3779 15.16536098456694
S-NET B                 
1 43187U 18014H   26154.81555775  .00006108  00000+0  31648-3 0  9997
2 43187  97.5378  59.6766 0010461  65.8455 294.3871 15.16508833456737
S-NET A                 
1 43188U 18014J   26154.27546338  .00006127  00000+0  31718-3 0  9992
2 43188  97.5390  59.3462 0010427  67.9189 292.3150 15.16540722456653
S-NET C                 
1 43189U 18014K   26154.29149897  .00006053  00000+0  31370-3 0  9996
2 43189  97.5406  59.4346 0011645  61.0421 299.1978 15.16493858455201
PAZ                     
1 43215U 18020A   26154.93335362  .00001148  00000+0  57860-4 0  9991
2 43215  97.4455 162.5075 0001653  87.2472 272.8952 15.19146326458990
GOES 17                 
1 43226U 18022A   26154.90571601 -.00000171  00000+0  00000+0 0  9995
2 43226   0.9040  85.9584 0000761   4.0171  38.9536  1.00271800 30295
LKW-4                   
1 43236U 18025A   26153.02133718  .00046614  00000+0  55427-3 0  9992
2 43236  97.6336 322.7217 0002081  14.9090 345.2228 15.61015210457668
ZHUHAI-1 OVS-02         
1 43440U 18040B   26154.97648272  .00007801  00000+0  31671-3 0  9997
2 43440  97.0390 172.9912 0002061 336.3651  23.7493 15.24838421450704
ZHUHAI-1 OHS-02         
1 43441U 18040C   26154.96890720  .00008552  00000+0  33814-3 0  9999
2 43441  97.0373 179.9104 0007265 278.4579  81.5837 15.25678724112261
GAOFEN-6                
1 43484U 18048A   26154.92490609  .00000369  00000+0  59862-4 0  9992
2 43484  97.7761 218.0945 0011061 212.4618 147.5913 14.76614707431432
LUOJIA-1 01             
1 43485U 18048B   26154.92025683  .00001622  00000+0  18603-3 0  9999
2 43485  97.8107 233.3214 0009477 156.1386 204.0271 14.87233416432243
PAKTES 1A               
1 43529U 18056A   26154.92191076  .00004987  00000+0  41440-3 0  9999
2 43529  98.1290 310.8420 0022239 147.8955 212.3626 14.99038976429934
PRSS-1                  
1 43530U 18056B   26154.95620541  .00001348  00000+0  17654-3 0  9996
2 43530  97.7823 223.1919 0001795  80.6501 279.4915 14.81968339426474
HAIYANG-1C              
1 43609U 18068A   26154.91963145  .00000009  00000+0  18677-4 0  9992
2 43609  98.5192 227.4190 0011772 129.9421 230.2800 14.34174145405186
SSTL S1-4               
1 43618U 18071A   26153.64248630  .00000987  00000+0  92356-4 0  9991
2 43618  97.5040  25.8610 0000819 100.9597 259.1717 14.96202660420767
HAIYANG-2B              
1 43655U 18081A   26154.96095770 -.00000062  00000+0 -17827-4 0  9990
2 43655  99.3281 163.9166 0000956  22.5120 337.6074 13.79307891383104
CFOSAT                  
1 43662U 18083A   26154.89567571  .00004099  00000+0  21450-3 0  9993
2 43662  97.3604 159.8194 0001972  97.2214 262.9244 15.16374708420426
TEN-KOH                 
1 43677U 18084G   26154.60822997  .00003129  00000+0  23806-3 0  9995
2 43677  98.0773 346.3982 0010083 158.8702 201.2941 15.02879943414120
DIWATA-2B               
1 43678U 18084H   26154.89872639  .00003392  00000+0  27490-3 0  9990
2 43678  98.1150 350.5322 0011762 214.6926 145.3530 15.00387286414225
STARS-AO                
1 43679U 18084J   26154.81523379  .00006828  00000+0  35033-3 0  9996
2 43679  98.0510   7.9633 0001916 169.6123 190.5148 15.16895069415443
AUTCUBE 2               
1 43681U 18084K   26154.51364346  .00004689  00000+0  29270-3 0  9992
2 43681  98.0716 359.9634 0010404  89.9098 270.3322 15.09991843414867
METOP-C                 
1 43689U 18087A   26154.90558688  .00000126  00000+0  77220-4 0  9991
2 43689  98.6649 214.7514 0001239 143.9095 216.2167 14.21508383392941
ES'HAIL 2               
1 43700U 18090A   26154.85724576  .00000156  00000+0  00000+0 0  9994
2 43700   0.0179   1.1383 0001970 105.3537 120.2160  1.00272337 27545
MOHAMMED VI-B           
1 43717U 18095A   26154.89966063  .00000967  00000+0  14406-3 0  9999
2 43717  97.9557 227.4070 0001165  90.9119 269.2225 14.77099876406220
HYSIS                   
1 43719U 18096A   26154.94830854  .00001422  00000+0  20106-3 0  9997
2 43719  97.9842 221.7988 0001553 118.4200 241.7168 14.78667104405464
